{"fetched_at":"2026-07-19T07:05:14.667Z","source":"https://celestrak.org/NORAD/elements/gp.php?NAME=HULIANWANG&FORMAT=JSON","constellation":"guowang","records":[{"OBJECT_NAME":"HULIANWANG DIGUI-156","OBJECT_ID":"2026-047B","EPOCH":"2026-07-18T17:18:13.727808","CLASSIFICATION_TYPE":"U","MEAN_MOTION":13.29326329,"ECCENTRICITY":0.0000887,"INCLINATION":50.0045,"RA_OF_ASC_NODE":303.2165,"ARG_OF_PERICENTER":214.9087,"MEAN_ANOMALY":145.1727,"EPHEMERIS_TYPE":0,"NORAD_CAT_ID":68130,"ELEMENT_SET_NO":999,"REV_AT_EPOCH":1725,"BSTAR":0.000078716,"MEAN_MOTION_DOT":-8.8e-7,"MEAN_MOTION_DDOT":0},{"OBJECT_NAME":"HULIANWANG DIGUI-157","OBJECT_ID":"2026-047C","EPOCH":"2026-07-18T17:06:13.529376","CLASSIFICATION_TYPE":"U","MEAN_MOTION":13.29325726,"ECCENTRICITY":0.0000905,"INCLINATION":50.0016,"RA_OF_ASC_NODE":303.1431,"ARG_OF_PERICENTER":211.8819,"MEAN_ANOMALY":148.1999,"EPHEMERIS_TYPE":0,"NORAD_CAT_ID":68131,"ELEMENT_SET_NO":999,"REV_AT_EPOCH":1726,"BSTAR":0.000083097,"MEAN_MOTION_DOT":-8.5e-7,"MEAN_MOTION_DDOT":0},{"OBJECT_NAME":"HULIANWANG DIGUI-158","OBJECT_ID":"2026-047D","EPOCH":"2026-07-18T15:05:53.939328","CLASSIFICATION_TYPE":"U","MEAN_MOTION":13.2932449,"ECCENTRICITY":0.000099,"INCLINATION":50.0061,"RA_OF_ASC_NODE":303.4184,"ARG_OF_PERICENTER":210.3899,"MEAN_ANOMALY":149.6916,"EPHEMERIS_TYPE":0,"NORAD_CAT_ID":68132,"ELEMENT_SET_NO":999,"REV_AT_EPOCH":1724,"BSTAR":0.000081747,"MEAN_MOTION_DOT":-8.6e-7,"MEAN_MOTION_DDOT":0},{"OBJECT_NAME":"HULIANWANG DIGUI-159","OBJECT_ID":"2026-047E","EPOCH":"2026-07-18T07:40:51.372192","CLASSIFICATION_TYPE":"U","MEAN_MOTION":13.29326192,"ECCENTRICITY":0.00010388,"INCLINATION":50.0022,"RA_OF_ASC_NODE":304.4209,"ARG_OF_PERICENTER":205.9347,"MEAN_ANOMALY":154.1473,"EPHEMERIS_TYPE":0,"NORAD_CAT_ID":68133,"ELEMENT_SET_NO":999,"REV_AT_EPOCH":1721,"BSTAR":0.00006073766,"MEAN_MOTION_DOT":-9.6e-7,"MEAN_MOTION_DDOT":0},{"OBJECT_NAME":"HULIANWANG DIGUI-160","OBJECT_ID":"2026-047F","EPOCH":"2026-07-18T16:17:58.420032","CLASSIFICATION_TYPE":"U","MEAN_MOTION":13.29325992,"ECCENTRICITY":0.0001123,"INCLINATION":50.009,"RA_OF_ASC_NODE":303.0476,"ARG_OF_PERICENTER":195.3971,"MEAN_ANOMALY":164.6867,"EPHEMERIS_TYPE":0,"NORAD_CAT_ID":68134,"ELEMENT_SET_NO":999,"REV_AT_EPOCH":1725,"BSTAR":0.000075347,"MEAN_MOTION_DOT":-8.9e-7,"MEAN_MOTION_DDOT":0},{"OBJECT_NAME":"HULIANWANG DIGUI-161","OBJECT_ID":"2026-047G","EPOCH":"2026-07-18T16:30:00.271296","CLASSIFICATION_TYPE":"U","MEAN_MOTION":13.29325131,"ECCENTRICITY":0.0001005,"INCLINATION":50.0107,"RA_OF_ASC_NODE":303.1111,"ARG_OF_PERICENTER":207.1575,"MEAN_ANOMALY":152.9245,"EPHEMERIS_TYPE":0,"NORAD_CAT_ID":68135,"ELEMENT_SET_NO":999,"REV_AT_EPOCH":1726,"BSTAR":0.000066702,"MEAN_MOTION_DOT":-9.3e-7,"MEAN_MOTION_DDOT":0},{"OBJECT_NAME":"HULIANWANG DIGUI-162","OBJECT_ID":"2026-047H","EPOCH":"2026-07-18T16:06:17.055072","CLASSIFICATION_TYPE":"U","MEAN_MOTION":13.29324322,"ECCENTRICITY":0.0000936,"INCLINATION":50.0076,"RA_OF_ASC_NODE":302.9952,"ARG_OF_PERICENTER":215.6114,"MEAN_ANOMALY":144.4695,"EPHEMERIS_TYPE":0,"NORAD_CAT_ID":68136,"ELEMENT_SET_NO":999,"REV_AT_EPOCH":1725,"BSTAR":0.000073125,"MEAN_MOTION_DOT":-9e-7,"MEAN_MOTION_DDOT":0},{"OBJECT_NAME":"HULIANWANG DIGUI-163","OBJECT_ID":"2026-047J","EPOCH":"2026-07-18T17:42:13.011840","CLASSIFICATION_TYPE":"U","MEAN_MOTION":13.29325708,"ECCENTRICITY":0.0000862,"INCLINATION":50.0077,"RA_OF_ASC_NODE":302.6843,"ARG_OF_PERICENTER":213.9015,"MEAN_ANOMALY":146.1802,"EPHEMERIS_TYPE":0,"NORAD_CAT_ID":68137,"ELEMENT_SET_NO":999,"REV_AT_EPOCH":1727,"BSTAR":0.00007603,"MEAN_MOTION_DOT":-8.9e-7,"MEAN_MOTION_DDOT":0},{"OBJECT_NAME":"HULIANWANG DIGUI-164","OBJECT_ID":"2026-076A","EPOCH":"2026-07-18T20:33:59.127840","CLASSIFICATION_TYPE":"U","MEAN_MOTION":13.24410568,"ECCENTRICITY":0.000197,"INCLINATION":86.4946,"RA_OF_ASC_NODE":33.1808,"ARG_OF_PERICENTER":78.5384,"MEAN_ANOMALY":281.5971,"EPHEMERIS_TYPE":0,"NORAD_CAT_ID":68656,"ELEMENT_SET_NO":999,"REV_AT_EPOCH":1356,"BSTAR":-0.000011796,"MEAN_MOTION_DOT":1e-7,"MEAN_MOTION_DDOT":0},{"OBJECT_NAME":"HULIANWANG DIGUI-165","OBJECT_ID":"2026-076B","EPOCH":"2026-07-18T20:23:06.861408","CLASSIFICATION_TYPE":"U","MEAN_MOTION":13.24413316,"ECCENTRICITY":0.0002123,"INCLINATION":86.4964,"RA_OF_ASC_NODE":33.2009,"ARG_OF_PERICENTER":83.5824,"MEAN_ANOMALY":276.5551,"EPHEMERIS_TYPE":0,"NORAD_CAT_ID":68657,"ELEMENT_SET_NO":999,"REV_AT_EPOCH":1356,"BSTAR":-0.000035151,"MEAN_MOTION_DOT":0,"MEAN_MOTION_DDOT":0},{"OBJECT_NAME":"HULIANWANG DIGUI-166","OBJECT_ID":"2026-076C","EPOCH":"2026-07-18T20:12:19.797984","CLASSIFICATION_TYPE":"U","MEAN_MOTION":13.24411361,"ECCENTRICITY":0.0002099,"INCLINATION":86.4906,"RA_OF_ASC_NODE":33.1328,"ARG_OF_PERICENTER":83.5225,"MEAN_ANOMALY":276.6148,"EPHEMERIS_TYPE":0,"NORAD_CAT_ID":68658,"ELEMENT_SET_NO":999,"REV_AT_EPOCH":1356,"BSTAR":-0.000041097,"MEAN_MOTION_DOT":-3e-8,"MEAN_MOTION_DDOT":0},{"OBJECT_NAME":"HULIANWANG DIGUI-167","OBJECT_ID":"2026-076D","EPOCH":"2026-07-18T20:01:20.940960","CLASSIFICATION_TYPE":"U","MEAN_MOTION":13.24413378,"ECCENTRICITY":0.0002102,"INCLINATION":86.496,"RA_OF_ASC_NODE":33.1905,"ARG_OF_PERICENTER":83.2061,"MEAN_ANOMALY":276.9312,"EPHEMERIS_TYPE":0,"NORAD_CAT_ID":68659,"ELEMENT_SET_NO":999,"REV_AT_EPOCH":1356,"BSTAR":-0.000076474,"MEAN_MOTION_DOT":-1.8e-7,"MEAN_MOTION_DDOT":0},{"OBJECT_NAME":"HULIANWANG DIGUI-168","OBJECT_ID":"2026-076E","EPOCH":"2026-07-18T19:50:28.931136","CLASSIFICATION_TYPE":"U","MEAN_MOTION":13.24411442,"ECCENTRICITY":0.0002126,"INCLINATION":86.4942,"RA_OF_ASC_NODE":33.1657,"ARG_OF_PERICENTER":83.3686,"MEAN_ANOMALY":276.769,"EPHEMERIS_TYPE":0,"NORAD_CAT_ID":68660,"ELEMENT_SET_NO":999,"REV_AT_EPOCH":1355,"BSTAR":-0.00013753,"MEAN_MOTION_DOT":-4.4e-7,"MEAN_MOTION_DDOT":0}]}
