HULIANWANG DIGUI-156    
1 68130U 26047B   26199.72099222 -.00000088  00000+0  78716-4 0  9996
2 68130  50.0045 303.2165 0000887 214.9087 145.1727 13.29326329 17250
HULIANWANG DIGUI-157    
1 68131U 26047C   26199.71265659 -.00000085  00000+0  83097-4 0  9990
2 68131  50.0016 303.1431 0000905 211.8819 148.1999 13.29325726 17269
HULIANWANG DIGUI-158    
1 68132U 26047D   26199.62909652 -.00000086  00000+0  81747-4 0  9990
2 68132  50.0061 303.4184 0000990 210.3899 149.6916 13.29324490 17244
HULIANWANG DIGUI-159    
1 68133U 26047E   26199.32003903 -.00000096  00000+0  60738-4 0  9990
2 68133  50.0022 304.4209 0001038 205.9347 154.1473 13.29326192 17210
HULIANWANG DIGUI-160    
1 68134U 26047F   26199.67914838 -.00000089  00000+0  75347-4 0  9991
2 68134  50.0090 303.0476 0001123 195.3971 164.6867 13.29325992 17251
HULIANWANG DIGUI-161    
1 68135U 26047G   26199.68750314 -.00000093  00000+0  66702-4 0  9990
2 68135  50.0107 303.1111 0001005 207.1575 152.9245 13.29325131 17265
HULIANWANG DIGUI-162    
1 68136U 26047H   26199.67103073 -.00000090  00000+0  73125-4 0  9998
2 68136  50.0076 302.9952 0000936 215.6114 144.4695 13.29324322 17251
HULIANWANG DIGUI-163    
1 68137U 26047J   26199.73765060 -.00000089  00000+0  76030-4 0  9992
2 68137  50.0077 302.6843 0000862 213.9015 146.1802 13.29325708 17278
HULIANWANG DIGUI-164    
1 68656U 26076A   26199.85693435  .00000010  00000+0 -11796-4 0  9991
2 68656  86.4946  33.1808 0001970  78.5384 281.5971 13.24410568 13567
HULIANWANG DIGUI-165    
1 68657U 26076B   26199.84938497  .00000000  00000+0 -35151-4 0  9991
2 68657  86.4964  33.2009 0002123  83.5824 276.5551 13.24413316 13560
HULIANWANG DIGUI-166    
1 68658U 26076C   26199.84189581 -.00000003  00000+0 -41097-4 0  9994
2 68658  86.4906  33.1328 0002099  83.5225 276.6148 13.24411361 13568
HULIANWANG DIGUI-167    
1 68659U 26076D   26199.83427015 -.00000018  00000+0 -76474-4 0  9994
2 68659  86.4960  33.1905 0002102  83.2061 276.9312 13.24413378 13566
HULIANWANG DIGUI-168    
1 68660U 26076E   26199.82672374 -.00000044  00000+0 -13753-3 0  9994
2 68660  86.4942  33.1657 0002126  83.3686 276.7690 13.24411442 13558
